STARLINK-32460          
1 61914U 24207C   26068.01416227  .00028675  00000+0  10471-2 0  9993
2 61914  43.0002 285.1359 0001700 273.0231  87.0426 15.27590764 74623
TEVEL2-8                
1 63239U 25052AF  26068.66815442  .00019130  00000+0  69304-3 0  9993
2 63239  97.4055 324.2923 0008031 124.9191 235.2804 15.28392908 54807
